[{"OBJECT_NAME":"LAPAN-A3","OBJECT_ID":"2016-040E","EPOCH":"2026-03-09T23:01:57.724896","MEAN_MOTION":15.3238951,"ECCENTRICITY":0.00109839,"INCLINATION":97.1488,"RA_OF_ASC_NODE":68.4254,"ARG_OF_PERICENTER":22.062,"MEAN_ANOMALY":338.1093,"EPHEMERIS_TYPE":0,"CLASSIFICATION_TYPE":"U","NORAD_CAT_ID":41603,"ELEMENT_SET_NO":999,"REV_AT_EPOCH":53961,"BSTAR":0.00017567445,"MEAN_MOTION_DOT":5.428e-5,"MEAN_MOTION_DDOT":0},{"OBJECT_NAME":"STARLINK-34149","OBJECT_ID":"2025-111T","EPOCH":"2026-03-09T00:49:36.191424","MEAN_MOTION":15.27611973,"ECCENTRICITY":0.00020155,"INCLINATION":43.0106,"RA_OF_ASC_NODE":81.5356,"ARG_OF_PERICENTER":297.0909,"MEAN_ANOMALY":62.9737,"EPHEMERIS_TYPE":0,"CLASSIFICATION_TYPE":"U","NORAD_CAT_ID":64140,"ELEMENT_SET_NO":999,"REV_AT_EPOCH":4536,"BSTAR":0.001792964,"MEAN_MOTION_DOT":0.00049457,"MEAN_MOTION_DDOT":0}]
